[{"OBJECT_NAME":"STARLINK-1411","OBJECT_ID":"2020-035BB","EPOCH":"2026-03-09T22:47:07.657152","MEAN_MOTION":15.62165169,"ECCENTRICITY":0.00051821,"INCLINATION":53.045,"RA_OF_ASC_NODE":340.1671,"ARG_OF_PERICENTER":132.4601,"MEAN_ANOMALY":227.6851,"EPHEMERIS_TYPE":0,"CLASSIFICATION_TYPE":"U","NORAD_CAT_ID":45706,"ELEMENT_SET_NO":999,"REV_AT_EPOCH":31996,"BSTAR":0.0011824976,"MEAN_MOTION_DOT":0.0010674,"MEAN_MOTION_DDOT":0},{"OBJECT_NAME":"HAWK-3C","OBJECT_ID":"2021-059BX","EPOCH":"2026-03-09T11:39:18.012960","MEAN_MOTION":15.61557369,"ECCENTRICITY":0.00055667,"INCLINATION":97.687,"RA_OF_ASC_NODE":261.8501,"ARG_OF_PERICENTER":340.3597,"MEAN_ANOMALY":19.7445,"EPHEMERIS_TYPE":0,"CLASSIFICATION_TYPE":"U","NORAD_CAT_ID":48948,"ELEMENT_SET_NO":999,"REV_AT_EPOCH":26225,"BSTAR":0.00044158538,"MEAN_MOTION_DOT":0.00037876,"MEAN_MOTION_DDOT":0}]
